DELTA 2 R/B(1)          
1 20453U 90008B   25356.18135606  .00045731  00000+0  71322-3 0  9999
2 20453  35.6079 319.5298 0110837 264.1613  94.6476 15.45945386914095
COSMOS 2058             
1 20465U 90010A   25356.82707058  .00005125  00000+0  30869-3 0  9996
2 20465  82.4705 123.1090 0009238 233.5340 126.5039 15.10565120930636
SL-14 R/B               
1 20466U 90010B   25356.45839259  .00000448  00000+0  51452-4 0  9990
2 20466  82.5021 339.9189 0019456 189.8375 170.2462 14.83479994917036
SL-14 R/B               
1 20511U 90018B   25356.80700751  .00000459  00000+0  54743-4 0  9990
2 20511  82.5219 294.9554 0016134 350.8087   9.2829 14.82056464911193
HST                     
1 20580U 90037B   25356.26182927  .00006554  00000+0  22399-3 0  9999
2 20580  28.4658 207.6710 0002228 354.1662   5.8907 15.28167201761459
SL-16 R/B               
1 20625U 90046B   25355.72384766 -.00000247  00000+0 -10282-3 0  9997
2 20625  70.9993 101.6548 0012071  57.4695 302.7592 14.14998422837365
COSMOS 2084             
1 20663U 90055A   25356.40131862  .00002682  00000+0  20014-3 0  9999
2 20663  62.7893 239.0719 0030167 176.0092 184.1255 15.05072871924688
SL-6 R/B(2)             
1 20666U 90055D   25356.81294977  .00001882  00000+0  15311-3 0  9999
2 20666  62.7811 155.1870 0013833 315.6810  44.3181 15.03117285926636
SL-8 R/B                
1 20775U 90078B   25356.83058823  .00016325  00000+0  50433-3 0  9997
2 20775  82.9060 320.2743 0370462 271.9327  83.9510 14.86295013797875
SL-8 R/B                
1 21088U 91006B   25356.43501751  .00000126  00000+0  11089-3 0  9992
2 21088  82.9417 227.5013 0021204 250.9812 286.6719 13.77491911753432
OKEAN-3                 
1 21397U 91039A   25356.19519015  .00002712  00000+0  19313-3 0  9997
2 21397  82.5170  51.8958 0013553 229.8358 130.1682 15.04177527853384
COSMOS 2151             
1 21422U 91042A   25356.83159867  .00001552  00000+0  12344-3 0  9994
2 21422  82.4964 157.7775 0011763 324.3774  35.6663 14.99722284851677
